[{"OBJECT_NAME":"UNKNOWN","OBJECT_ID":"","EPOCH":"2026-03-05T10:21:51.408000","MEAN_MOTION":9.33711592,"ECCENTRICITY":0.1451445,"INCLINATION":54.5102,"RA_OF_ASC_NODE":86.0319,"ARG_OF_PERICENTER":126.0464,"MEAN_ANOMALY":248.367,"EPHEMERIS_TYPE":0,"CLASSIFICATION_TYPE":"U","NORAD_CAT_ID":81779,"ELEMENT_SET_NO":999,"REV_AT_EPOCH":48804,"BSTAR":-0.23919,"MEAN_MOTION_DOT":-3.624e-5,"MEAN_MOTION_DDOT":0},{"OBJECT_NAME":"UNKNOWN","OBJECT_ID":"","EPOCH":"2026-03-02T06:57:02.818944","MEAN_MOTION":13.11312865,"ECCENTRICITY":0.0894865,"INCLINATION":65.8297,"RA_OF_ASC_NODE":277.0548,"ARG_OF_PERICENTER":247.3283,"MEAN_ANOMALY":103.0797,"EPHEMERIS_TYPE":0,"CLASSIFICATION_TYPE":"U","NORAD_CAT_ID":81792,"ELEMENT_SET_NO":999,"REV_AT_EPOCH":9046,"BSTAR":0.00060434,"MEAN_MOTION_DOT":1.662e-5,"MEAN_MOTION_DDOT":0},{"OBJECT_NAME":"UNKNOWN","OBJECT_ID":"","EPOCH":"2026-03-05T12:00:40.436928","MEAN_MOTION":12.38158569,"ECCENTRICITY":0.0280777,"INCLINATION":103.8062,"RA_OF_ASC_NODE":351.7966,"ARG_OF_PERICENTER":88.1137,"MEAN_ANOMALY":275.2048,"EPHEMERIS_TYPE":0,"CLASSIFICATION_TYPE":"U","NORAD_CAT_ID":81812,"ELEMENT_SET_NO":999,"REV_AT_EPOCH":55080,"BSTAR":0.054389,"MEAN_MOTION_DOT":8.079e-5,"MEAN_MOTION_DDOT":0},{"OBJECT_NAME":"UNKNOWN","OBJECT_ID":"","EPOCH":"2026-02-28T02:37:08.907168","MEAN_MOTION":13.89737685,"ECCENTRICITY":0.0174437,"INCLINATION":66.2382,"RA_OF_ASC_NODE":103.1954,"ARG_OF_PERICENTER":204.2113,"MEAN_ANOMALY":155.0693,"EPHEMERIS_TYPE":0,"CLASSIFICATION_TYPE":"U","NORAD_CAT_ID":81816,"ELEMENT_SET_NO":999,"REV_AT_EPOCH":62009,"BSTAR":0.0013539,"MEAN_MOTION_DOT":1.799e-5,"MEAN_MOTION_DDOT":0},{"OBJECT_NAME":"UNKNOWN","OBJECT_ID":"","EPOCH":"2026-03-04T04:48:35.989920","MEAN_MOTION":12.47841625,"ECCENTRICITY":0.0031914,"INCLINATION":102.1699,"RA_OF_ASC_NODE":166.5064,"ARG_OF_PERICENTER":316.1502,"MEAN_ANOMALY":43.7032,"EPHEMERIS_TYPE":0,"CLASSIFICATION_TYPE":"U","NORAD_CAT_ID":81819,"ELEMENT_SET_NO":999,"REV_AT_EPOCH":55817,"BSTAR":0.007034,"MEAN_MOTION_DOT":9.95e-6,"MEAN_MOTION_DDOT":0},{"OBJECT_NAME":"UNKNOWN","OBJECT_ID":"","EPOCH":"2026-03-04T12:46:46.971840","MEAN_MOTION":14.3641233,"ECCENTRICITY":0.0048888,"INCLINATION":65.8408,"RA_OF_ASC_NODE":113.8028,"ARG_OF_PERICENTER":293.0682,"MEAN_ANOMALY":66.5261,"EPHEMERIS_TYPE":0,"CLASSIFICATION_TYPE":"U","NORAD_CAT_ID":81824,"ELEMENT_SET_NO":999,"REV_AT_EPOCH":63633,"BSTAR":0.0022459,"MEAN_MOTION_DOT":6.595e-5,"MEAN_MOTION_DDOT":0},{"OBJECT_NAME":"UNKNOWN","OBJECT_ID":"","EPOCH":"2026-03-04T05:54:41.956416","MEAN_MOTION":12.93760931,"ECCENTRICITY":0.0025978,"INCLINATION":90.2477,"RA_OF_ASC_NODE":4.6991,"ARG_OF_PERICENTER":165.6453,"MEAN_ANOMALY":194.541,"EPHEMERIS_TYPE":0,"CLASSIFICATION_TYPE":"U","NORAD_CAT_ID":81833,"ELEMENT_SET_NO":999,"REV_AT_EPOCH":46305,"BSTAR":0.00032879,"MEAN_MOTION_DOT":9.8e-7,"MEAN_MOTION_DDOT":0},{"OBJECT_NAME":"UNKNOWN","OBJECT_ID":"","EPOCH":"2026-03-05T09:03:09.489024","MEAN_MOTION":14.58221905,"ECCENTRICITY":0.0044979,"INCLINATION":67.7596,"RA_OF_ASC_NODE":50.0618,"ARG_OF_PERICENTER":290.2137,"MEAN_ANOMALY":219.1349,"EPHEMERIS_TYPE":0,"CLASSIFICATION_TYPE":"U","NORAD_CAT_ID":81838,"ELEMENT_SET_NO":999,"REV_AT_EPOCH":64537,"BSTAR":0.0021991,"MEAN_MOTION_DOT":0.00010238,"MEAN_MOTION_DDOT":0},{"OBJECT_NAME":"UNKNOWN","OBJECT_ID":"","EPOCH":"2026-03-03T09:31:50.857824","MEAN_MOTION":14.33796304,"ECCENTRICITY":0.00605,"INCLINATION":82.9101,"RA_OF_ASC_NODE":216.399,"ARG_OF_PERICENTER":264.2653,"MEAN_ANOMALY":95.1635,"EPHEMERIS_TYPE":0,"CLASSIFICATION_TYPE":"U","NORAD_CAT_ID":81844,"ELEMENT_SET_NO":999,"REV_AT_EPOCH":63444,"BSTAR":0.0034129,"MEAN_MOTION_DOT":9.706e-5,"MEAN_MOTION_DDOT":0},{"OBJECT_NAME":"UNKNOWN","OBJECT_ID":"","EPOCH":"2026-03-05T00:15:39.871296","MEAN_MOTION":14.85692077,"ECCENTRICITY":0.0087637,"INCLINATION":97.6775,"RA_OF_ASC_NODE":253.0944,"ARG_OF_PERICENTER":34.9917,"MEAN_ANOMALY":117.3763,"EPHEMERIS_TYPE":0,"CLASSIFICATION_TYPE":"U","NORAD_CAT_ID":81845,"ELEMENT_SET_NO":999,"REV_AT_EPOCH":66173,"BSTAR":0.00032944,"MEAN_MOTION_DOT":3.006e-5,"MEAN_MOTION_DDOT":0},{"OBJECT_NAME":"UNKNOWN","OBJECT_ID":"","EPOCH":"2026-02-24T01:01:17.885568","MEAN_MOTION":13.32743434,"ECCENTRICITY":0.0767897,"INCLINATION":65.6691,"RA_OF_ASC_NODE":255.4865,"ARG_OF_PERICENTER":341.5164,"MEAN_ANOMALY":15.9318,"EPHEMERIS_TYPE":0,"CLASSIFICATION_TYPE":"U","NORAD_CAT_ID":81864,"ELEMENT_SET_NO":999,"REV_AT_EPOCH":56060,"BSTAR":0.00035029,"MEAN_MOTION_DOT":8.57e-6,"MEAN_MOTION_DDOT":0},{"OBJECT_NAME":"UNKNOWN","OBJECT_ID":"","EPOCH":"2026-03-05T04:22:38.902080","MEAN_MOTION":13.88264266,"ECCENTRICITY":0.0061966,"INCLINATION":82.8067,"RA_OF_ASC_NODE":325.029,"ARG_OF_PERICENTER":128.2871,"MEAN_ANOMALY":26.7719,"EPHEMERIS_TYPE":0,"CLASSIFICATION_TYPE":"U","NORAD_CAT_ID":81865,"ELEMENT_SET_NO":999,"REV_AT_EPOCH":61998,"BSTAR":0.0010594,"MEAN_MOTION_DOT":1.302e-5,"MEAN_MOTION_DDOT":0},{"OBJECT_NAME":"UNKNOWN","OBJECT_ID":"","EPOCH":"2026-03-05T10:03:48.856608","MEAN_MOTION":13.76901658,"ECCENTRICITY":0.0021893,"INCLINATION":100.0569,"RA_OF_ASC_NODE":57.3222,"ARG_OF_PERICENTER":57.6079,"MEAN_ANOMALY":302.7183,"EPHEMERIS_TYPE":0,"CLASSIFICATION_TYPE":"U","NORAD_CAT_ID":81893,"ELEMENT_SET_NO":999,"REV_AT_EPOCH":61545,"BSTAR":0.0013538,"MEAN_MOTION_DOT":1.287e-5,"MEAN_MOTION_DDOT":0},{"OBJECT_NAME":"UNKNOWN","OBJECT_ID":"","EPOCH":"2026-03-04T06:07:41.776896","MEAN_MOTION":13.204566,"ECCENTRICITY":0.0170293,"INCLINATION":102.4116,"RA_OF_ASC_NODE":184.7507,"ARG_OF_PERICENTER":42.7859,"MEAN_ANOMALY":318.6362,"EPHEMERIS_TYPE":0,"CLASSIFICATION_TYPE":"U","NORAD_CAT_ID":81899,"ELEMENT_SET_NO":999,"REV_AT_EPOCH":58974,"BSTAR":0.0045307,"MEAN_MOTION_DOT":1.922e-5,"MEAN_MOTION_DDOT":0},{"OBJECT_NAME":"UNKNOWN","OBJECT_ID":"","EPOCH":"2026-03-03T02:04:07.928832","MEAN_MOTION":13.15432327,"ECCENTRICITY":0.0843493,"INCLINATION":65.7062,"RA_OF_ASC_NODE":230.7222,"ARG_OF_PERICENTER":79.7316,"MEAN_ANOMALY":289.7632,"EPHEMERIS_TYPE":0,"CLASSIFICATION_TYPE":"U","NORAD_CAT_ID":81921,"ELEMENT_SET_NO":999,"REV_AT_EPOCH":3635,"BSTAR":0.00080283,"MEAN_MOTION_DOT":1.918e-5,"MEAN_MOTION_DDOT":0},{"OBJECT_NAME":"UNKNOWN","OBJECT_ID":"","EPOCH":"2026-02-27T20:20:15.658080","MEAN_MOTION":12.42640677,"ECCENTRICITY":0.0677665,"INCLINATION":66.4234,"RA_OF_ASC_NODE":4.3155,"ARG_OF_PERICENTER":314.211,"MEAN_ANOMALY":69.7902,"EPHEMERIS_TYPE":0,"CLASSIFICATION_TYPE":"U","NORAD_CAT_ID":81946,"ELEMENT_SET_NO":999,"REV_AT_EPOCH":55746,"BSTAR":0.00053335,"MEAN_MOTION_DOT":1.11e-6,"MEAN_MOTION_DDOT":0},{"OBJECT_NAME":"UNKNOWN","OBJECT_ID":"","EPOCH":"2026-02-15T06:28:00.562080","MEAN_MOTION":14.53453444,"ECCENTRICITY":0.0369408,"INCLINATION":66.0766,"RA_OF_ASC_NODE":348.0426,"ARG_OF_PERICENTER":102.1486,"MEAN_ANOMALY":262.125,"EPHEMERIS_TYPE":0,"CLASSIFICATION_TYPE":"U","NORAD_CAT_ID":81947,"ELEMENT_SET_NO":999,"REV_AT_EPOCH":64039,"BSTAR":0.00046514,"MEAN_MOTION_DOT":4.726e-5,"MEAN_MOTION_DDOT":0},{"OBJECT_NAME":"UNKNOWN","OBJECT_ID":"","EPOCH":"2026-03-05T08:37:52.870944","MEAN_MOTION":13.95855465,"ECCENTRICITY":0.0033377,"INCLINATION":66.5845,"RA_OF_ASC_NODE":53.5881,"ARG_OF_PERICENTER":20.3688,"MEAN_ANOMALY":339.8714,"EPHEMERIS_TYPE":0,"CLASSIFICATION_TYPE":"U","NORAD_CAT_ID":81964,"ELEMENT_SET_NO":999,"REV_AT_EPOCH":62557,"BSTAR":0.00029999,"MEAN_MOTION_DOT":3.33e-6,"MEAN_MOTION_DDOT":0},{"OBJECT_NAME":"UNKNOWN","OBJECT_ID":"","EPOCH":"2026-03-03T10:06:47.828160","MEAN_MOTION":15.1313635,"ECCENTRICITY":0.000318,"INCLINATION":86.6835,"RA_OF_ASC_NODE":118.377,"ARG_OF_PERICENTER":201.541,"MEAN_ANOMALY":158.5696,"EPHEMERIS_TYPE":0,"CLASSIFICATION_TYPE":"U","NORAD_CAT_ID":81969,"ELEMENT_SET_NO":999,"REV_AT_EPOCH":45236,"BSTAR":0.00068831,"MEAN_MOTION_DOT":0.0001223,"MEAN_MOTION_DDOT":0},{"OBJECT_NAME":"UNKNOWN","OBJECT_ID":"","EPOCH":"2026-03-04T23:05:58.793856","MEAN_MOTION":14.04989219,"ECCENTRICITY":0.0516129,"INCLINATION":65.7446,"RA_OF_ASC_NODE":268.6872,"ARG_OF_PERICENTER":256.6593,"MEAN_ANOMALY":97.6465,"EPHEMERIS_TYPE":0,"CLASSIFICATION_TYPE":"U","NORAD_CAT_ID":81995,"ELEMENT_SET_NO":999,"REV_AT_EPOCH":61577,"BSTAR":0.00096399,"MEAN_MOTION_DOT":5.163e-5,"MEAN_MOTION_DDOT":0},{"OBJECT_NAME":"UNKNOWN","OBJECT_ID":"","EPOCH":"2026-03-04T20:19:58.114560","MEAN_MOTION":14.3302674,"ECCENTRICITY":0.023036,"INCLINATION":97.937,"RA_OF_ASC_NODE":210.7228,"ARG_OF_PERICENTER":196.2055,"MEAN_ANOMALY":163.1678,"EPHEMERIS_TYPE":0,"CLASSIFICATION_TYPE":"U","NORAD_CAT_ID":82043,"ELEMENT_SET_NO":999,"REV_AT_EPOCH":58560,"BSTAR":0.0017997,"MEAN_MOTION_DOT":6.584e-5,"MEAN_MOTION_DDOT":0},{"OBJECT_NAME":"UNKNOWN","OBJECT_ID":"","EPOCH":"2026-02-15T11:26:49.047648","MEAN_MOTION":14.36892613,"ECCENTRICITY":0.0090792,"INCLINATION":98.7424,"RA_OF_ASC_NODE":137.9574,"ARG_OF_PERICENTER":69.8098,"MEAN_ANOMALY":291.2824,"EPHEMERIS_TYPE":0,"CLASSIFICATION_TYPE":"U","NORAD_CAT_ID":82051,"ELEMENT_SET_NO":999,"REV_AT_EPOCH":58170,"BSTAR":0.0020421,"MEAN_MOTION_DOT":6.292e-5,"MEAN_MOTION_DDOT":0},{"OBJECT_NAME":"UNKNOWN","OBJECT_ID":"","EPOCH":"2026-03-05T03:22:00.661152","MEAN_MOTION":14.39453949,"ECCENTRICITY":0.0206181,"INCLINATION":97.7402,"RA_OF_ASC_NODE":137.4107,"ARG_OF_PERICENTER":36.4819,"MEAN_ANOMALY":325.0218,"EPHEMERIS_TYPE":0,"CLASSIFICATION_TYPE":"U","NORAD_CAT_ID":82073,"ELEMENT_SET_NO":999,"REV_AT_EPOCH":58697,"BSTAR":0.0006551,"MEAN_MOTION_DOT":2.576e-5,"MEAN_MOTION_DDOT":0},{"OBJECT_NAME":"UNKNOWN","OBJECT_ID":"","EPOCH":"2026-03-04T23:34:22.848096","MEAN_MOTION":14.15880577,"ECCENTRICITY":0.008451,"INCLINATION":99.0127,"RA_OF_ASC_NODE":137.8384,"ARG_OF_PERICENTER":169.2082,"MEAN_ANOMALY":191.093,"EPHEMERIS_TYPE":0,"CLASSIFICATION_TYPE":"U","NORAD_CAT_ID":82139,"ELEMENT_SET_NO":999,"REV_AT_EPOCH":49175,"BSTAR":0.001567,"MEAN_MOTION_DOT":3.148e-5,"MEAN_MOTION_DDOT":0}]
